{
  "type": "FeatureCollection",
  "features": [
    {
      "type": "Feature",
      "properties": {
        "norad_id": 36744,
        "name": "COMS 1",
        "group": "weather",
        "lat": 0.2344088296117698,
        "lon": 80.69815497766423,
        "alt_km": 35789.91089628204,
        "timestamp": "2025-12-26T14:28:47.332412+00:00",
        "meta_object_name": "COMS 1",
        "meta_object_id": "2010-032A",
        "meta_epoch": "2025-12-25T12:42:15.782976",
        "meta_mean_motion": 1.00270082,
        "meta_eccentricity": 8.877e-05,
        "meta_inclination": 4.3689,
        "meta_ra_of_asc_node": 77.8525,
        "meta_arg_of_pericenter": 213.8569,
        "meta_mean_anomaly": 121.3153,
        "meta_ephemeris_type": 0,
        "meta_classification_type": "U",
        "meta_norad_cat_id": 36744,
        "meta_element_set_no": 999,
        "meta_rev_at_epoch": 4934,
        "meta_bstar": 0,
        "meta_mean_motion_dot": -3.24e-06,
        "meta_mean_motion_ddot": 0,
        "tle_line1": "1 36744U 10032A   25359.52934934 -.00000324  00000+0  00000+0 0  9991",
        "tle_line2": "2 36744   4.3689  77.8525 0000887 213.8569 121.3153  1.00270082 49343"
      },
      "geometry": {
        "type": "Point",
        "coordinates": [
          80.69815497766423,
          0.2344088296117698
        ]
      }
    },
    {
      "type": "Feature",
      "properties": {
        "norad_id": 37214,
        "name": "FENGYUN 3B",
        "group": "weather",
        "lat": 45.66560296239744,
        "lon": 31.352925511051982,
        "alt_km": 838.5876611406693,
        "timestamp": "2025-12-26T14:28:47.332426+00:00",
        "meta_object_name": "FENGYUN 3B",
        "meta_object_id": "2010-059A",
        "meta_epoch": "2025-12-26T06:23:06.381312",
        "meta_mean_motion": 14.14794627,
        "meta_eccentricity": 0.00214606,
        "meta_inclination": 98.9886,
        "meta_ra_of_asc_node": 40.3365,
        "meta_arg_of_pericenter": 318.8305,
        "meta_mean_anomaly": 170.5016,
        "meta_ephemeris_type": 0,
        "meta_classification_type": "U",
        "meta_norad_cat_id": 37214,
        "meta_element_set_no": 999,
        "meta_rev_at_epoch": 78297,
        "meta_bstar": 0.00021833383,
        "meta_mean_motion_dot": 3.76e-06,
        "meta_mean_motion_ddot": 0,
        "tle_line1": "1 37214U 10059A   25360.26604608  .00000376  00000+0  21833-3 0  9995",
        "tle_line2": "2 37214  98.9886  40.3365 0021460 318.8305 170.5016 14.14794627782977"
      },
      "geometry": {
        "type": "Point",
        "coordinates": [
          31.352925511051982,
          45.66560296239744
        ]
      }
    },
    {
      "type": "Feature",
      "properties": {
        "norad_id": 37849,
        "name": "SUOMI NPP",
        "group": "weather",
        "lat": 56.6260955924255,
        "lon": 131.38758018333647,
        "alt_km": 819.9760149857157,
        "timestamp": "2025-12-26T14:28:47.332438+00:00",
        "meta_object_name": "SUOMI NPP",
        "meta_object_id": "2011-061A",
        "meta_epoch": "2025-12-22T15:10:21.732672",
        "meta_mean_motion": 14.19516903,
        "meta_eccentricity": 0.00024883,
        "meta_inclination": 98.7787,
        "meta_ra_of_asc_node": 293.8852,
        "meta_arg_of_pericenter": 103.0781,
        "meta_mean_anomaly": 257.0673,
        "meta_ephemeris_type": 0,
        "meta_classification_type": "U",
        "meta_norad_cat_id": 37849,
        "meta_element_set_no": 999,
        "meta_rev_at_epoch": 73339,
        "meta_bstar": 6.3406935e-05,
        "meta_mean_motion_dot": 8.9e-07,
        "meta_mean_motion_ddot": 0,
        "tle_line1": "1 37849U 11061A   25356.63219598  .00000089  00000+0  63407-4 0  9994",
        "tle_line2": "2 37849  98.7787 293.8852 0002488 103.0781 257.0673 14.19516903733392"
      },
      "geometry": {
        "type": "Point",
        "coordinates": [
          131.38758018333647,
          56.6260955924255
        ]
      }
    },
    {
      "type": "Feature",
      "properties": {
        "norad_id": 38552,
        "name": "METEOSAT-10 (MSG-3)",
        "group": "weather",
        "lat": -4.045623416266483,
        "lon": -47.25397792763955,
        "alt_km": 35781.97960937274,
        "timestamp": "2025-12-26T14:28:47.332451+00:00",
        "meta_object_name": "METEOSAT-10 (MSG-3)",
        "meta_object_id": "2012-035B",
        "meta_epoch": "2025-12-25T19:55:02.807904",
        "meta_mean_motion": 1.00266624,
        "meta_eccentricity": 0.0001479,
        "meta_inclination": 4.2575,
        "meta_ra_of_asc_node": 61.6862,
        "meta_arg_of_pericenter": 265.3349,
        "meta_mean_anomaly": 66.5982,
        "meta_ephemeris_type": 0,
        "meta_classification_type": "U",
        "meta_norad_cat_id": 38552,
        "meta_element_set_no": 999,
        "meta_rev_at_epoch": 4911,
        "meta_bstar": 0,
        "meta_mean_motion_dot": 1.4e-07,
        "meta_mean_motion_ddot": 0,
        "tle_line1": "1 38552U 12035B   25359.82989361  .00000014  00000+0  00000+0 0  9997",
        "tle_line2": "2 38552   4.2575  61.6862 0001479 265.3349  66.5982  1.00266624 49118"
      },
      "geometry": {
        "type": "Point",
        "coordinates": [
          -47.25397792763955,
          -4.045623416266483
        ]
      }
    },
    {
      "type": "Feature",
      "properties": {
        "norad_id": 38771,
        "name": "METOP-B",
        "group": "weather",
        "lat": 67.11938077119753,
        "lon": 29.109206034526345,
        "alt_km": 812.3705298395107,
        "timestamp": "2025-12-26T14:28:47.332463+00:00",
        "meta_object_name": "METOP-B",
        "meta_object_id": "2012-049A",
        "meta_epoch": "2025-12-26T05:42:37.873440",
        "meta_mean_motion": 14.21413386,
        "meta_eccentricity": 0.00032953,
        "meta_inclination": 98.678,
        "meta_ra_of_asc_node": 49.9667,
        "meta_arg_of_pericenter": 116.1865,
        "meta_mean_anomaly": 243.9652,
        "meta_ephemeris_type": 0,
        "meta_classification_type": "U",
        "meta_norad_cat_id": 38771,
        "meta_element_set_no": 999,
        "meta_rev_at_epoch": 68869,
        "meta_bstar": 8.1607714e-05,
        "meta_mean_motion_dot": 1.35e-06,
        "meta_mean_motion_ddot": 0,
        "tle_line1": "1 38771U 12049A   25360.23793835  .00000135  00000+0  81608-4 0  9993",
        "tle_line2": "2 38771  98.6780  49.9667 0003295 116.1865 243.9652 14.21413386688695"
      },
      "geometry": {
        "type": "Point",
        "coordinates": [
          29.109206034526345,
          67.11938077119753
        ]
      }
    },
    {
      "type": "Feature",
      "properties": {
        "norad_id": 39216,
        "name": "INSAT-3D",
        "group": "weather",
        "lat": -0.05346197239187183,
        "lon": 82.08312402107212,
        "alt_km": 35793.401014026334,
        "timestamp": "2025-12-26T14:28:47.332475+00:00",
        "meta_object_name": "INSAT-3D",
        "meta_object_id": "2013-038B",
        "meta_epoch": "2025-12-26T00:52:38.586144",
        "meta_mean_motion": 1.00273672,
        "meta_eccentricity": 0.0001945,
        "meta_inclination": 1.4773,
        "meta_ra_of_asc_node": 84.8465,
        "meta_arg_of_pericenter": 157.8171,
        "meta_mean_anomaly": 354.8337,
        "meta_ephemeris_type": 0,
        "meta_classification_type": "U",
        "meta_norad_cat_id": 39216,
        "meta_element_set_no": 999,
        "meta_rev_at_epoch": 4534,
        "meta_bstar": 0,
        "meta_mean_motion_dot": -3.17e-06,
        "meta_mean_motion_ddot": 0,
        "tle_line1": "1 39216U 13038B   25360.03655771 -.00000317  00000+0  00000+0 0  9996",
        "tle_line2": "2 39216   1.4773  84.8465 0001945 157.8171 354.8337  1.00273672 45346"
      },
      "geometry": {
        "type": "Point",
        "coordinates": [
          82.08312402107212,
          -0.05346197239187183
        ]
      }
    },
    {
      "type": "Feature",
      "properties": {
        "norad_id": 39260,
        "name": "FENGYUN 3C",
        "group": "weather",
        "lat": 30.248537422710474,
        "lon": -27.38299899316466,
        "alt_km": 844.5887846916839,
        "timestamp": "2025-12-26T14:28:47.332487+00:00",
        "meta_object_name": "FENGYUN 3C",
        "meta_object_id": "2013-052A",
        "meta_epoch": "2025-12-26T05:51:14.906592",
        "meta_mean_motion": 14.1570031,
        "meta_eccentricity": 0.00150404,
        "meta_inclination": 98.478,
        "meta_ra_of_asc_node": 337.2649,
        "meta_arg_of_pericenter": 157.1797,
        "meta_mean_anomaly": 203.0049,
        "meta_ephemeris_type": 0,
        "meta_classification_type": "U",
        "meta_norad_cat_id": 39260,
        "meta_element_set_no": 999,
        "meta_rev_at_epoch": 63409,
        "meta_bstar": 7.2320843e-05,
        "meta_mean_motion_dot": 1.01e-06,
        "meta_mean_motion_ddot": 0,
        "tle_line1": "1 39260U 13052A   25360.24392253  .00000101  00000+0  72321-4 0  9997",
        "tle_line2": "2 39260  98.4780 337.2649 0015040 157.1797 203.0049 14.15700310634091"
      },
      "geometry": {
        "type": "Point",
        "coordinates": [
          -27.38299899316466,
          30.248537422710474
        ]
      }
    }
  ]
}